{
  "norad_id": 67624,
  "name": "STARLINK-36439",
  "history": [
    {
      "epoch": "2026-03-28T04:33:45.361440Z",
      "apogee_km": 483.92651496879535,
      "perigee_km": 482.081691348978,
      "latitude_deg": 2.555149926563495e-05,
      "longitude_deg": 141.19460625835632,
      "height_km": 482.9902604501991,
      "semi_major_axis_km": 6861.141103158886,
      "eccentricity": 0.00013444,
      "inclination_deg": 43.0012,
      "raan_deg": 35.2477,
      "arg_perigee_deg": 256.8767,
      "mean_anomaly_deg": 103.1935,
      "mean_motion_rev_day": 15.27595026
    },
    {
      "epoch": "2026-03-29T02:31:56.294688Z",
      "apogee_km": 483.69609311830845,
      "perigee_km": 482.20449274082694,
      "latitude_deg": -1.052454642847014e-05,
      "longitude_deg": 165.57734865575247,
      "height_km": 482.7013478199801,
      "semi_major_axis_km": 6861.087292929567,
      "eccentricity": 0.0001087,
      "inclination_deg": 43.0024,
      "raan_deg": 30.0783,
      "arg_perigee_deg": 271.9709,
      "mean_anomaly_deg": 88.1018,
      "mean_motion_rev_day": 15.27612997
    },
    {
      "epoch": "2026-03-30T03:38:26.174112Z",
      "apogee_km": 484.0115434812651,
      "perigee_km": 481.9573237240447,
      "latitude_deg": -4.6024712141046004e-07,
      "longitude_deg": 142.01390118393408,
      "height_km": 482.6073576430479,
      "semi_major_axis_km": 6861.121433602655,
      "eccentricity": 0.0001497,
      "inclination_deg": 43.0022,
      "raan_deg": 24.1705,
      "arg_perigee_deg": 278.6293,
      "mean_anomaly_deg": 81.4389,
      "mean_motion_rev_day": 15.27601595
    },
    {
      "epoch": "2026-03-30T05:12:35.507232Z",
      "apogee_km": 483.9467395968004,
      "perigee_km": 482.03797340982237,
      "latitude_deg": 3.6876196297297065e-05,
      "longitude_deg": 118.04090588791243,
      "height_km": 482.57744961523474,
      "semi_major_axis_km": 6861.129356503311,
      "eccentricity": 0.0001391,
      "inclination_deg": 43.0025,
      "raan_deg": 23.8008,
      "arg_perigee_deg": 281.5983,
      "mean_anomaly_deg": 78.4713,
      "mean_motion_rev_day": 15.27598949
    },
    {
      "epoch": "2026-03-30T20:54:10.207872Z",
      "apogee_km": 483.98228645717427,
      "perigee_km": 482.0516949472694,
      "latitude_deg": 4.0262358989598216e-05,
      "longitude_deg": -121.69336321663721,
      "height_km": 483.11116842095055,
      "semi_major_axis_km": 6861.153990702222,
      "eccentricity": 0.00014069,
      "inclination_deg": 42.9995,
      "raan_deg": 20.1056,
      "arg_perigee_deg": 250.7882,
      "mean_anomaly_deg": 109.2818,
      "mean_motion_rev_day": 15.27590722
    },
    {
      "epoch": "2026-03-31T03:10:47.941248Z",
      "apogee_km": 484.15334311945935,
      "perigee_km": 481.93663244284744,
      "latitude_deg": 1.6219575833017066e-06,
      "longitude_deg": 142.41788019516892,
      "height_km": 482.95933241800157,
      "semi_major_axis_km": 6861.181987781153,
      "eccentricity": 0.00016154,
      "inclination_deg": 43.0026,
      "raan_deg": 18.6319,
      "arg_perigee_deg": 262.8889,
      "mean_anomaly_deg": 97.1779,
      "mean_motion_rev_day": 15.27581372
    },
    {
      "epoch": "2026-04-01T01:09:00.011520Z",
      "apogee_km": 483.8993646993631,
      "perigee_km": 482.12987369677285,
      "latitude_deg": -2.9939735180047956e-05,
      "longitude_deg": 166.79537837609757,
      "height_km": 482.71381635016695,
      "semi_major_axis_km": 6861.151619198068,
      "eccentricity": 0.00012895,
      "inclination_deg": 43.0029,
      "raan_deg": 13.462,
      "arg_perigee_deg": 275.0412,
      "mean_anomaly_deg": 85.0292,
      "mean_motion_rev_day": 15.27591514
    },
    {
      "epoch": "2026-04-02T19:31:12.129312Z",
      "apogee_km": 483.8292865484909,
      "perigee_km": 482.0629693080373,
      "latitude_deg": 3.101461734271556e-05,
      "longitude_deg": -120.46972109354559,
      "height_km": 483.5018640654033,
      "semi_major_axis_km": 6861.083127928264,
      "eccentricity": 0.00012872,
      "inclination_deg": 42.9997,
      "raan_deg": 3.4874,
      "arg_perigee_deg": 207.9855,
      "mean_anomaly_deg": 152.0928,
      "mean_motion_rev_day": 15.27614388
    },
    {
      "epoch": "2026-04-03T11:12:46.669248Z",
      "apogee_km": 483.7978691295566,
      "perigee_km": 482.33890241632525,
      "latitude_deg": 1.6712676954779175e-05,
      "longitude_deg": -0.19533829620045326,
      "height_km": 482.14580075792855,
      "semi_major_axis_km": 6861.205385772941,
      "eccentricity": 0.00010632,
      "inclination_deg": 43.0048,
      "raan_deg": 359.8002,
      "arg_perigee_deg": 16.8119,
      "mean_anomaly_deg": 343.2768,
      "mean_motion_rev_day": 15.27573558
    },
    {
      "epoch": "2026-04-04T10:45:08.397504Z",
      "apogee_km": 484.23696303742145,
      "perigee_km": 481.7921975063391,
      "latitude_deg": -6.037775304774937e-06,
      "longitude_deg": 0.20747504786811402,
      "height_km": 482.36839852746766,
      "semi_major_axis_km": 6861.15158027188,
      "eccentricity": 0.00017816,
      "inclination_deg": 43.0045,
      "raan_deg": 354.2603,
      "arg_perigee_deg": 290.2788,
      "mean_anomaly_deg": 69.7872,
      "mean_motion_rev_day": 15.27591527
    },
    {
      "epoch": "2026-04-05T10:17:29.368032Z",
      "apogee_km": 484.095010842414,
      "perigee_km": 481.961188496417,
      "latitude_deg": 1.0756512016545976e-05,
      "longitude_deg": 0.6156955748201336,
      "height_km": 482.5692941550161,
      "semi_major_axis_km": 6861.165099669415,
      "eccentricity": 0.0001555,
      "inclination_deg": 43.004,
      "raan_deg": 348.7226,
      "arg_perigee_deg": 282.7839,
      "mean_anomaly_deg": 77.2839,
      "mean_motion_rev_day": 15.27587012
    },
    {
      "epoch": "2026-04-06T01:59:02.515200Z",
      "apogee_km": 484.1048572582931,
      "perigee_km": 481.8301266750277,
      "latitude_deg": 3.0745500005777834e-05,
      "longitude_deg": 120.88973270754225,
      "height_km": 482.41999953108257,
      "semi_major_axis_km": 6861.10449196666,
      "eccentricity": 0.00016577,
      "inclination_deg": 43.0036,
      "raan_deg": 345.0292,
      "arg_perigee_deg": 286.5925,
      "mean_anomaly_deg": 73.4745,
      "mean_motion_rev_day": 15.27607253
    },
    {
      "epoch": "2026-04-07T09:22:10.376832Z",
      "apogee_km": 484.1164689675088,
      "perigee_km": 481.91252988286305,
      "latitude_deg": -2.347188993510811e-05,
      "longitude_deg": 1.4352572852707794,
      "height_km": 482.1215689020548,
      "semi_major_axis_km": 6861.151499425186,
      "eccentricity": 0.00016061,
      "inclination_deg": 43.0014,
      "raan_deg": 337.6465,
      "arg_perigee_deg": 307.4308,
      "mean_anomaly_deg": 52.6397,
      "mean_motion_rev_day": 15.27591554
    },
    {
      "epoch": "2026-04-08T08:54:30.536064Z",
      "apogee_km": 484.25680851049583,
      "perigee_km": 481.7246407124503,
      "latitude_deg": 4.454080380867704e-05,
      "longitude_deg": 1.8437204463644277,
      "height_km": 482.4881795329792,
      "semi_major_axis_km": 6861.127724611472,
      "eccentricity": 0.00018453,
      "inclination_deg": 43.0018,
      "raan_deg": 332.1056,
      "arg_perigee_deg": 282.7676,
      "mean_anomaly_deg": 77.297,
      "mean_motion_rev_day": 15.27599494
    },
    {
      "epoch": "2026-04-09T00:36:04.921344Z",
      "apogee_km": 483.7862455153481,
      "perigee_km": 482.26636062045236,
      "latitude_deg": 1.3548323733131066e-05,
      "longitude_deg": 122.11542950449379,
      "height_km": 482.5047721861628,
      "semi_major_axis_km": 6861.1633030678995,
      "eccentricity": 0.00011076,
      "inclination_deg": 43.001,
      "raan_deg": 328.4151,
      "arg_perigee_deg": 293.0922,
      "mean_anomaly_deg": 66.9813,
      "mean_motion_rev_day": 15.27587612
    },
    {
      "epoch": "2026-04-10T07:59:14.535168Z",
      "apogee_km": 483.24070110685716,
      "perigee_km": 482.70690668631414,
      "latitude_deg": -1.4596101522554627e-05,
      "longitude_deg": 2.649960885167866,
      "height_km": 482.5396769683697,
      "semi_major_axis_km": 6861.110803896585,
      "eccentricity": 3.89e-05,
      "inclination_deg": 43.0005,
      "raan_deg": 321.0287,
      "arg_perigee_deg": 38.3294,
      "mean_anomaly_deg": 321.7585,
      "mean_motion_rev_day": 15.27605145
    },
    {
      "epoch": "2026-04-11T07:31:32.980224Z",
      "apogee_km": 483.9657112841114,
      "perigee_km": 482.03087113199126,
      "latitude_deg": 5.008903589733429e-05,
      "longitude_deg": 3.064983301373252,
      "height_km": 482.89026133273126,
      "semi_major_axis_km": 6861.135291208051,
      "eccentricity": 0.000141,
      "inclination_deg": 43.005,
      "raan_deg": 315.4872,
      "arg_perigee_deg": 263.1888,
      "mean_anomaly_deg": 96.8804,
      "mean_motion_rev_day": 15.27596967
    },
    {
      "epoch": "2026-04-13T06:36:15.275520Z",
      "apogee_km": 484.1283079473633,
      "perigee_km": 481.9505705455458,
      "latitude_deg": -1.6161262392280785e-05,
      "longitude_deg": 3.875739028884789,
      "height_km": 483.1428259316452,
      "semi_major_axis_km": 6861.176439246454,
      "eccentricity": 0.0001587,
      "inclination_deg": 43.0057,
      "raan_deg": 304.4077,
      "arg_perigee_deg": 252.5788,
      "mean_anomaly_deg": 107.489,
      "mean_motion_rev_day": 15.27583225
    },
    {
      "epoch": "2026-04-14T13:59:22.871904Z",
      "apogee_km": 483.54270963305225,
      "perigee_km": 482.48472019281326,
      "latitude_deg": 2.9112201977824194e-05,
      "longitude_deg": -115.57911734575924,
      "height_km": 483.0135135320717,
      "semi_major_axis_km": 6861.150714912933,
      "eccentricity": 7.71e-05,
      "inclination_deg": 42.9984,
      "raan_deg": 297.0234,
      "arg_perigee_deg": 244.9566,
      "mean_anomaly_deg": 115.1206,
      "mean_motion_rev_day": 15.27591816
    }
  ]
}